     3.04           N: GNSS NAV DATA    M: Mixed            RINEX VERSION / TYPE
HGO                 HITARGET            20250511 084953 UTC PGM / RUN BY / DATE 
GPSA   2.9802D-08  1.4901D-08 -1.7881D-07 -5.9605D-08       IONOSPHERIC CORR    
GPSB   1.3312D+05  1.6384D+04 -2.6214D+05  3.2768D+05       IONOSPHERIC CORR    
    18                                                      LEAP SECONDS        
                                                            END OF HEADER       
E05 2025 04 10 08 00 00 4.842683556490D-03 3.154809746775D-12 0.000000000000D+00
     1.160000000000D+02-8.659375000000D+01 3.556933874859D-09 2.175550314117D+00
    -4.136934876442D-06 3.132262500003D-04 3.559514880180D-06 5.440606060028D+03
     3.744000000000D+05 3.352761268616D-08-1.420596464882D+00 1.024454832077D-07
     9.635678457256D-01 2.619062500000D+02-9.027635312218D-01-6.019179294407D-09
    -2.717970357232D-10 0.000000000000D+00 2.361000000000D+03                   
     1.070000000000D+02 0.000000000000D+00 1.629814505577D-09 2.095475792885D-09
     0.000000000000D+00                                                         
